{
  "links" : {
    "next" : "https://api.nasa.gov/neo/rest/v1/feed?start_date=1996-10-16&end_date=1996-10-16&detailed=true&api_key=t0TVs3DtDT2H8Oy2Zy8m2eVrNsAVKAexjcZXUckd",
    "prev" : "https://api.nasa.gov/neo/rest/v1/feed?start_date=1996-10-14&end_date=1996-10-14&detailed=true&api_key=t0TVs3DtDT2H8Oy2Zy8m2eVrNsAVKAexjcZXUckd",
    "self" : "https://api.nasa.gov/neo/rest/v1/feed?start_date=1996-10-15&end_date=1996-10-15&detailed=true&api_key=t0TVs3DtDT2H8Oy2Zy8m2eVrNsAVKAexjcZXUckd"
  },
  "element_count" : 3,
  "near_earth_objects" : {
    "1996-10-15" : [ {
      "links" : {
        "self" : "https://api.nasa.gov/neo/rest/v1/neo/3062448?api_key=t0TVs3DtDT2H8Oy2Zy8m2eVrNsAVKAexjcZXUckd"
      },
      "neo_reference_id" : "3062448",
      "name" : "(2000 SC241)",
      "nasa_jpl_url" : "http://ssd.jpl.nasa.gov/sbdb.cgi?sstr=3062448",
      "absolute_magnitude_h" : 20.2,
      "estimated_diameter" : {
        "kilometers" : {
          "estimated_diameter_min" : 0.2424124811,
          "estimated_diameter_max" : 0.5420507863
        },
        "meters" : {
          "estimated_diameter_min" : 242.4124811008,
          "estimated_diameter_max" : 542.0507863358
        },
        "miles" : {
          "estimated_diameter_min" : 0.1506280858,
          "estimated_diameter_max" : 0.3368146392
        },
        "feet" : {
          "estimated_diameter_min" : 795.3165644948,
          "estimated_diameter_max" : 1778.3819018419
        }
      },
      "is_potentially_hazardous_asteroid" : false,
      "close_approach_data" : [ {
        "close_approach_date" : "1996-10-15",
        "epoch_date_close_approach" : 845362800000,
        "relative_velocity" : {
          "kilometers_per_second" : "14.1177980844",
          "kilometers_per_hour" : "50824.0731038119",
          "miles_per_hour" : "31580.1025349769"
        },
        "miss_distance" : {
          "astronomical" : "0.2964449725",
          "lunar" : "115.3171005249",
          "kilometers" : "44347540",
          "miles" : "27556282"
        },
        "orbiting_body" : "Earth"
      } ],
      "orbital_data" : {
        "orbit_id" : "11",
        "orbit_determination_date" : "2017-04-06 09:16:47",
        "orbit_uncertainty" : "6",
        "minimum_orbit_intersection" : ".184462",
        "jupiter_tisserand_invariant" : "3.175",
        "epoch_osculation" : "2458000.5",
        "eccentricity" : ".5262399730945583",
        "semi_major_axis" : "2.49634475184854",
        "inclination" : "22.14157143328714",
        "ascending_node_longitude" : "196.7702968701624",
        "orbital_period" : "1440.639341364723",
        "perihelion_distance" : "1.182668356801022",
        "perihelion_argument" : "181.5849458830121",
        "aphelion_distance" : "3.810021146896057",
        "perihelion_time" : "2457577.821714981021",
        "mean_anomaly" : "105.622676153413",
        "mean_motion" : ".2498890524945477",
        "equinox" : "J2000"
      }
    }, {
      "links" : {
        "self" : "https://api.nasa.gov/neo/rest/v1/neo/3704267?api_key=t0TVs3DtDT2H8Oy2Zy8m2eVrNsAVKAexjcZXUckd"
      },
      "neo_reference_id" : "3704267",
      "name" : "(2015 BU4)",
      "nasa_jpl_url" : "http://ssd.jpl.nasa.gov/sbdb.cgi?sstr=3704267",
      "absolute_magnitude_h" : 25.6,
      "estimated_diameter" : {
        "kilometers" : {
          "estimated_diameter_min" : 0.0201629919,
          "estimated_diameter_max" : 0.0450858206
        },
        "meters" : {
          "estimated_diameter_min" : 20.1629919443,
          "estimated_diameter_max" : 45.0858206172
        },
        "miles" : {
          "estimated_diameter_min" : 0.0125286985,
          "estimated_diameter_max" : 0.0280150214
        },
        "feet" : {
          "estimated_diameter_min" : 66.1515504905,
          "estimated_diameter_max" : 147.9193637137
        }
      },
      "is_potentially_hazardous_asteroid" : false,
      "close_approach_data" : [ {
        "close_approach_date" : "1996-10-15",
        "epoch_date_close_approach" : 845362800000,
        "relative_velocity" : {
          "kilometers_per_second" : "10.6575875694",
          "kilometers_per_hour" : "38367.3152497669",
          "miles_per_hour" : "23839.9576339455"
        },
        "miss_distance" : {
          "astronomical" : "0.2484575807",
          "lunar" : "96.6500015259",
          "kilometers" : "37168724",
          "miles" : "23095576"
        },
        "orbiting_body" : "Earth"
      } ],
      "orbital_data" : {
        "orbit_id" : "8",
        "orbit_determination_date" : "2017-04-06 08:36:13",
        "orbit_uncertainty" : "6",
        "minimum_orbit_intersection" : ".050429",
        "jupiter_tisserand_invariant" : "4.715",
        "epoch_osculation" : "2458000.5",
        "eccentricity" : ".296956866619405",
        "semi_major_axis" : "1.391801346890149",
        "inclination" : "8.544305599579635",
        "ascending_node_longitude" : "301.2058807137637",
        "orbital_period" : "599.7417817191515",
        "perihelion_distance" : ".9784963799609828",
        "perihelion_argument" : "132.3940465217097",
        "aphelion_distance" : "1.805106313819315",
        "perihelion_time" : "2458200.603165515945",
        "mean_anomaly" : "239.8864081484422",
        "mean_motion" : ".6002583294564954",
        "equinox" : "J2000"
      }
    }, {
      "links" : {
        "self" : "https://api.nasa.gov/neo/rest/v1/neo/3752574?api_key=t0TVs3DtDT2H8Oy2Zy8m2eVrNsAVKAexjcZXUckd"
      },
      "neo_reference_id" : "3752574",
      "name" : "(2016 JB)",
      "nasa_jpl_url" : "http://ssd.jpl.nasa.gov/sbdb.cgi?sstr=3752574",
      "absolute_magnitude_h" : 27.1,
      "estimated_diameter" : {
        "kilometers" : {
          "estimated_diameter_min" : 0.0101054342,
          "estimated_diameter_max" : 0.0225964377
        },
        "meters" : {
          "estimated_diameter_min" : 10.1054341542,
          "estimated_diameter_max" : 22.5964377109
        },
        "miles" : {
          "estimated_diameter_min" : 0.0062792237,
          "estimated_diameter_max" : 0.0140407711
        },
        "feet" : {
          "estimated_diameter_min" : 33.1543125905,
          "estimated_diameter_max" : 74.1352966996
        }
      },
      "is_potentially_hazardous_asteroid" : false,
      "close_approach_data" : [ {
        "close_approach_date" : "1996-10-15",
        "epoch_date_close_approach" : 845362800000,
        "relative_velocity" : {
          "kilometers_per_second" : "8.0744753486",
          "kilometers_per_hour" : "29068.1112548137",
          "miles_per_hour" : "18061.7939071925"
        },
        "miss_distance" : {
          "astronomical" : "0.2258126032",
          "lunar" : "87.8411026001",
          "kilometers" : "33781084",
          "miles" : "20990592"
        },
        "orbiting_body" : "Earth"
      } ],
      "orbital_data" : {
        "orbit_id" : "14",
        "orbit_determination_date" : "2017-07-04 06:19:26",
        "orbit_uncertainty" : "5",
        "minimum_orbit_intersection" : ".0109807",
        "jupiter_tisserand_invariant" : "6.540",
        "epoch_osculation" : "2458000.5",
        "eccentricity" : ".1426417864004464",
        "semi_major_axis" : ".9090377197535343",
        "inclination" : "9.584061344440503",
        "ascending_node_longitude" : "222.588971656164",
        "orbital_period" : "316.5711131233832",
        "perihelion_distance" : ".7793709555025018",
        "perihelion_argument" : "152.5387018359882",
        "aphelion_distance" : "1.038704484004567",
        "perihelion_time" : "2457954.804290547423",
        "mean_anomaly" : "51.96448671713174",
        "mean_motion" : "1.137185248673307",
        "equinox" : "J2000"
      }
    } ]
  }
}